{"type": "FeatureCollection", "features": [ {"type": "Feature", "properties": {"norad_id": 34538, "name": "IRIDIUM 33 DEB", "group": "iridium-33-debris", "lat": 63.65229769264436, "lon": 6.911544123662724, "alt_km": 761.9200886005119, "timestamp": "2025-12-26T21:25:53.394750+00:00", "meta": {"OBJECT_NAME": "IRIDIUM 33 DEB", "OBJECT_ID": "1997-051JF", "EPOCH": "2025-12-24T17:48:32.243904", "MEAN_MOTION": 14.42715706, "ECCENTRICITY": 0.00319126, "INCLINATION": 86.2764, "RA_OF_ASC_NODE": 0.2977, "ARG_OF_PERICENTER": 286.3391, "MEAN_ANOMALY": 132.9527, "EPHEMERIS_TYPE": 0, "CLASSIFICATION_TYPE": "U", "NORAD_CAT_ID": 34538, "ELEMENT_SET_NO": 999, "REV_AT_EPOCH": 87929, "BSTAR": 0.00092856968, "MEAN_MOTION_DOT": 3.127e-05, "MEAN_MOTION_DDOT": 0}, "tle": {"line1": "1 34538U 97051JF  25358.74203986  .00003127  00000+0  92857-3 0  9993", "line2": "2 34538  86.2764   0.2977 0031912 286.3391 132.9527 14.42715706879292"}}, "geometry": {"type": "Point", "coordinates": [6.911544123662724, 63.65229769264436]}}, {"type": "Feature", "properties": {"norad_id": 34540, "name": "IRIDIUM 33 DEB", "group": "iridium-33-debris", "lat": -11.033035749559636, "lon": -59.58491465481177, "alt_km": 654.7184474098158, "timestamp": "2025-12-26T21:25:53.394760+00:00", "meta": {"OBJECT_NAME": "IRIDIUM 33 DEB", "OBJECT_ID": "1997-051JH", "EPOCH": "2025-12-26T07:30:51.838272", "MEAN_MOTION": 14.75597732, "ECCENTRICITY": 0.00184404, "INCLINATION": 86.311, "RA_OF_ASC_NODE": 301.401, "ARG_OF_PERICENTER": 114.305, "MEAN_ANOMALY": 36.5387, "EPHEMERIS_TYPE": 0, "CLASSIFICATION_TYPE": "U", "NORAD_CAT_ID": 34540, "ELEMENT_SET_NO": 999, "REV_AT_EPOCH": 89221, "BSTAR": 0.0015801792, "MEAN_MOTION_DOT": 0.00010835, "MEAN_MOTION_DDOT": 0}, "tle": {"line1": "1 34540U 97051JH  25360.31309998  .00010835  00000+0  15802-2 0  9990", "line2": "2 34540  86.3110 301.4010 0018440 114.3050  36.5387 14.75597732892211"}}, "geometry": {"type": "Point", "coordinates": [-59.58491465481177, -11.033035749559636]}}, {"type": "Feature", "properties": {"norad_id": 34648, "name": "IRIDIUM 33 DEB", "group": "iridium-33-debris", "lat": 49.56970241751638, "lon": 91.98246363834225, "alt_km": 919.0108881752785, "timestamp": "2025-12-26T21:25:53.394771+00:00", "meta": {"OBJECT_NAME": "IRIDIUM 33 DEB", "OBJECT_ID": "1997-051JZ", "EPOCH": "2025-12-26T12:17:41.417952", "MEAN_MOTION": 14.11881069, "ECCENTRICITY": 0.01779921, "INCLINATION": 86.3906, "RA_OF_ASC_NODE": 276.3849, "ARG_OF_PERICENTER": 255.5018, "MEAN_ANOMALY": 102.6362, "EPHEMERIS_TYPE": 0, "CLASSIFICATION_TYPE": "U", "NORAD_CAT_ID": 34648, "ELEMENT_SET_NO": 999, "REV_AT_EPOCH": 85155, "BSTAR": 0.0060129312, "MEAN_MOTION_DOT": 0.00012775, "MEAN_MOTION_DDOT": 0}, "tle": {"line1": "1 34648U 97051JZ  25360.51228493  .00012775  00000+0  60129-2 0  9998", "line2": "2 34648  86.3906 276.3849 0177992 255.5018 102.6362 14.11881069851552"}}, "geometry": {"type": "Point", "coordinates": [91.98246363834225, 49.56970241751638]}}, {"type": "Feature", "properties": {"norad_id": 34651, "name": "IRIDIUM 33 DEB", "group": "iridium-33-debris", "lat": -14.745426776334876, "lon": -44.46382599377655, "alt_km": 726.1024342087658, "timestamp": "2025-12-26T21:25:53.394781+00:00", "meta": {"OBJECT_NAME": "IRIDIUM 33 DEB", "OBJECT_ID": "1997-051KC", "EPOCH": "2025-12-25T15:53:57.959232", "MEAN_MOTION": 14.26027654, "ECCENTRICITY": 0.0142018, "INCLINATION": 86.2827, "RA_OF_ASC_NODE": 135.0795, "ARG_OF_PERICENTER": 163.1805, "MEAN_ANOMALY": 197.4168, "EPHEMERIS_TYPE": 0, "CLASSIFICATION_TYPE": "U", "NORAD_CAT_ID": 34651, "ELEMENT_SET_NO": 999, "REV_AT_EPOCH": 86080, "BSTAR": 0.0036817, "MEAN_MOTION_DOT": 9.797e-05, "MEAN_MOTION_DDOT": 0}, "tle": {"line1": "1 34651U 97051KC  25359.66247638  .00009797  00000+0  36817-2 0  9995", "line2": "2 34651  86.2827 135.0795 0142018 163.1805 197.4168 14.26027654860809"}}, "geometry": {"type": "Point", "coordinates": [-44.46382599377655, -14.745426776334876]}}, {"type": "Feature", "properties": {"norad_id": 34652, "name": "IRIDIUM 33 DEB", "group": "iridium-33-debris", "lat": -73.36817160270276, "lon": -38.700977318025785, "alt_km": 679.6629699554233, "timestamp": "2025-12-26T21:25:53.394794+00:00", "meta": {"OBJECT_NAME": "IRIDIUM 33 DEB", "OBJECT_ID": "1997-051KD", "EPOCH": "2025-12-25T04:47:40.914240", "MEAN_MOTION": 14.62168979, "ECCENTRICITY": 0.0025437, "INCLINATION": 86.3321, "RA_OF_ASC_NODE": 334.4529, "ARG_OF_PERICENTER": 252.4347, "MEAN_ANOMALY": 126.6927, "EPHEMERIS_TYPE": 0, "CLASSIFICATION_TYPE": "U", "NORAD_CAT_ID": 34652, "ELEMENT_SET_NO": 999, "REV_AT_EPOCH": 88666, "BSTAR": 0.0010092, "MEAN_MOTION_DOT": 5.122e-05, "MEAN_MOTION_DDOT": 0}, "tle": {"line1": "1 34652U 97051KD  25359.19977910  .00005122  00000+0  10092-2 0  9992", "line2": "2 34652  86.3321 334.4529 0025437 252.4347 126.6927 14.62168979886663"}}, "geometry": {"type": "Point", "coordinates": [-38.700977318025785, -73.36817160270276]}}, {"type": "Feature", "properties": {"norad_id": 34690, "name": "IRIDIUM 33 DEB", "group": "iridium-33-debris", "lat": 27.0589977140984, "lon": -151.0154046395377, "alt_km": 714.4445434405325, "timestamp": "2025-12-26T21:25:53.394805+00:00", "meta": {"OBJECT_NAME": "IRIDIUM 33 DEB", "OBJECT_ID": "1997-051KM", "EPOCH": "2025-12-26T01:03:16.116192", "MEAN_MOTION": 14.55142163, "ECCENTRICITY": 0.00093058, "INCLINATION": 86.3773, "RA_OF_ASC_NODE": 31.2082, "ARG_OF_PERICENTER": 344.5785, "MEAN_ANOMALY": 43.326, "EPHEMERIS_TYPE": 0, "CLASSIFICATION_TYPE": "U", "NORAD_CAT_ID": 34690, "ELEMENT_SET_NO": 999, "REV_AT_EPOCH": 88288, "BSTAR": 0.00040777266, "MEAN_MOTION_DOT": 1.782e-05, "MEAN_MOTION_DDOT": 0}, "tle": {"line1": "1 34690U 97051KM  25360.04393653  .00001782  00000+0  40777-3 0  9998", "line2": "2 34690  86.3773  31.2082 0009305 344.5785  43.3260 14.55142163882881"}}, "geometry": {"type": "Point", "coordinates": [-151.0154046395377, 27.0589977140984]}}, {"type": "Feature", "properties": {"norad_id": 34693, "name": "IRIDIUM 33 DEB", "group": "iridium-33-debris", "lat": 32.338722710967076, "lon": -60.878769214230545, "alt_km": 463.15469186067367, "timestamp": "2025-12-26T21:25:53.394816+00:00", "meta": {"OBJECT_NAME": "IRIDIUM 33 DEB", "OBJECT_ID": "1997-051KQ", "EPOCH": "2025-12-26T14:13:50.606976", "MEAN_MOTION": 15.31505662, "ECCENTRICITY": 0.00089789, "INCLINATION": 86.3044, "RA_OF_ASC_NODE": 296.9258, "ARG_OF_PERICENTER": 30.4224, "MEAN_ANOMALY": 148.9709, "EPHEMERIS_TYPE": 0, "CLASSIFICATION_TYPE": "U", "NORAD_CAT_ID": 34693, "ELEMENT_SET_NO": 999, "REV_AT_EPOCH": 89126, "BSTAR": 0.005144515, "MEAN_MOTION_DOT": 0.00159672, "MEAN_MOTION_DDOT": 0}, "tle": {"line1": "1 34693U 97051KQ  25360.59294684  .00159672  00000+0  51445-2 0  9990", "line2": "2 34693  86.3044 296.9258 0008978  30.4224 148.9709 15.31505662891268"}}, "geometry": {"type": "Point", "coordinates": [-60.878769214230545, 32.338722710967076]}}, {"type": "Feature", "properties": {"norad_id": 34696, "name": "IRIDIUM 33 DEB", "group": "iridium-33-debris", "lat": 83.41610057463568, "lon": 165.6179363782091, "alt_km": 619.7866780599488, "timestamp": "2025-12-26T21:25:53.394826+00:00", "meta": {"OBJECT_NAME": "IRIDIUM 33 DEB", "OBJECT_ID": "1997-051KT", "EPOCH": "2025-12-26T01:36:24.067008", "MEAN_MOTION": 14.65708991, "ECCENTRICITY": 0.00738933, "INCLINATION": 86.1852, "RA_OF_ASC_NODE": 21.3194, "ARG_OF_PERICENTER": 122.6811, "MEAN_ANOMALY": 297.1917, "EPHEMERIS_TYPE": 0, "CLASSIFICATION_TYPE": "U", "NORAD_CAT_ID": 34696, "ELEMENT_SET_NO": 999, "REV_AT_EPOCH": 86868, "BSTAR": 0.0037727771, "MEAN_MOTION_DOT": 0.00021447, "MEAN_MOTION_DDOT": 0}, "tle": {"line1": "1 34696U 97051KT  25360.06694522  .00021447  00000+0  37728-2 0  9996", "line2": "2 34696  86.1852  21.3194 0073893 122.6811 297.1917 14.65708991868683"}}, "geometry": {"type": "Point", "coordinates": [165.6179363782091, 83.41610057463568]}}, {"type": "Feature", "properties": {"norad_id": 34765, "name": "IRIDIUM 33 DEB", "group": "iridium-33-debris", "lat": 23.09933091932147, "lon": -154.87806524839093, "alt_km": 744.4860168628747, "timestamp": "2025-12-26T21:25:53.394837+00:00", "meta": {"OBJECT_NAME": "IRIDIUM 33 DEB", "OBJECT_ID": "1997-051LJ", "EPOCH": "2025-12-26T02:40:33.184416", "MEAN_MOTION": 14.40497452, "ECCENTRICITY": 0.00169729, "INCLINATION": 86.3379, "RA_OF_ASC_NODE": 27.0226, "ARG_OF_PERICENTER": 166.6572, "MEAN_ANOMALY": 260.0722, "EPHEMERIS_TYPE": 0, "CLASSIFICATION_TYPE": "U", "NORAD_CAT_ID": 34765, "ELEMENT_SET_NO": 999, "REV_AT_EPOCH": 87806, "BSTAR": 0.00037005237, "MEAN_MOTION_DOT": 1.198e-05, "MEAN_MOTION_DDOT": 0}, "tle": {"line1": "1 34765U 97051LJ  25360.11149519  .00001198  00000+0  37005-3 0  9990", "line2": "2 34765  86.3379  27.0226 0016972 166.6572 260.0722 14.40497452878068"}}, "geometry": {"type": "Point", "coordinates": [-154.87806524839093, 23.09933091932147]}}, {"type": "Feature", "properties": {"norad_id": 34833, "name": "IRIDIUM 33 DEB", "group": "iridium-33-debris", "lat": 30.134093475074366, "lon": -137.20620217863714, "alt_km": 717.3816960274235, "timestamp": "2025-12-26T21:25:53.394846+00:00", "meta": {"OBJECT_NAME": "IRIDIUM 33 DEB", "OBJECT_ID": "1997-051MH", "EPOCH": "2025-12-26T02:41:22.045344", "MEAN_MOTION": 14.52451151, "ECCENTRICITY": 0.00211523, "INCLINATION": 86.3918, "RA_OF_ASC_NODE": 45.2295, "ARG_OF_PERICENTER": 57.6143, "MEAN_ANOMALY": 331.1785, "EPHEMERIS_TYPE": 0, "CLASSIFICATION_TYPE": "U", "NORAD_CAT_ID": 34833, "ELEMENT_SET_NO": 999, "REV_AT_EPOCH": 87909, "BSTAR": 0.00066936049, "MEAN_MOTION_DOT": 2.757e-05, "MEAN_MOTION_DDOT": 0}, "tle": {"line1": "1 34833U 97051MH  25360.11206071  .00002757  00000+0  66936-3 0  9990", "line2": "2 34833  86.3918  45.2295 0021152  57.6143 331.1785 14.52451151879092"}}, "geometry": {"type": "Point", "coordinates": [-137.20620217863714, 30.134093475074366]}}]}